$$SOE
2460721.500000000, A.D. 2025-Feb-15 00:00:00.0000, 2.035304719774011E+08, 1.954971656194544E+08, -1.036075752795577E+08,
2460728.500000000, A.D. 2025-Feb-22 00:00:00.0000, 1.942483491419236E+08, 2.050551085758656E+08, -1.070579679451645E+08,
2460735.500000000, A.D. 2025-Mar-01 00:00:00.0000, 1.846240867703359E+08, 2.142520329057727E+08, -1.103198171036220E+08,
2460742.500000000, A.D. 2025-Mar-08 00:00:00.0000, 1.746794817690767E+08, 2.230773726473350E+08, -1.133902738351693E+08,
2460749.500000000, A.D. 2025-Mar-15 00:00:00.0000, 1.644365224386072E+08, 2.315218703748773E+08, -1.162670835503498E+08,
2460756.500000000, A.D. 2025-Mar-22 00:00:00.0000, 1.539172753641044E+08, 2.395775535840573E+08, -1.189485658121200E+08,
2460763.500000000, A.D. 2025-Mar-29 00:00:00.0000, 1.431437809255257E+08, 2.472377004109553E+08, -1.214335913530582E+08,
2460770.500000000, A.D. 2025-Apr-05 00:00:00.0000, 1.321379583767268E+08, 2.544967989541347E+08, -1.237215566174878E+08,
2460777.500000000, A.D. 2025-Apr-12 00:00:00.0000, 1.209215189836102E+08, 2.613505014410824E+08, -1.258123561796286E+08,
2460784.500000000, A.D. 2025-Apr-19 00:00:00.0000, 1.095158872662085E+08, 2.677955734788668E+08, -1.277063536071963E+08,
2460791.500000000, A.D. 2025-Apr-26 00:00:00.0000, 9.794213068346356E+07, 2.738298392639511E+08, -1.294043512945957E+08,
2460798.500000000, A.D. 2025-May-03 00:00:00.0000, 8.622089779537250E+07, 2.794521237863669E+08, -1.309075597175788E+08,
2460805.500000000, A.D. 2025-May-10 00:00:00.0000, 7.437236472702217E+07, 2.846621929776515E+08, -1.322175665103456E+08,
2460812.500000000, A.D. 2025-May-17 00:00:00.0000, 6.241618966361732E+07, 2.894606926177188E+08, -1.333363057246109E+08,
2460819.500000000, A.D. 2025-May-24 00:00:00.0000, 5.037147516000812E+07, 2.938490867124571E+08, -1.342660275970385E+08,
2460826.500000000, A.D. 2025-May-31 00:00:00.0000, 3.825673822912606E+07, 2.978295963278087E+08, -1.350092690987075E+08,
2460833.500000000, A.D. 2025-Jun-07 00:00:00.0000, 2.608988731267155E+07, 3.014051406686115E+08, -1.355688253494318E+08,
2460840.500000000, A.D. 2025-Jun-14 00:00:00.0000, 1.388820324858035E+07, 3.045792802242436E+08, -1.359477219061589E+08,
2460847.500000000, A.D. 2025-Jun-21 00:00:00.0000, 1.668324908722700E+06, 3.073561591116031E+08, -1.361491884320681E+08,
2460854.500000000, A.D. 2025-Jun-28 00:00:00.0000, -1.055375791181240E+07, 3.097404487129236E+08, -1.361766339923792E+08,
2460861.500000000, A.D. 2025-Jul-05 00:00:00.0000, -2.276270639987357E+07, 3.117372950224892E+08, -1.360336237335804E+08,
2460868.500000000, A.D. 2025-Jul-12 00:00:00.0000, -3.494383113014359E+07, 3.133522690833274E+08, -1.357238569404310E+08,
2460875.500000000, A.D. 2025-Jul-19 00:00:00.0000, -4.708308727803673E+07, 3.145913200679033E+08, -1.352511465495390E+08,
2460882.500000000, A.D. 2025-Jul-26 00:00:00.0000, -5.916706689830545E+07, 3.154607310251638E+08, -1.346194001387357E+08,
2460889.500000000, A.D. 2025-Aug-02 00:00:00.0000, -7.118298864199471E+07, 3.159670773503865E+08, -1.338326023750701E+08,
2460896.500000000, A.D. 2025-Aug-09 00:00:00.0000, -8.311868529398778E+07, 3.161171879604076E+08, -1.328947988894561E+08,
2460903.500000000, A.D. 2025-Aug-16 00:00:00.0000, -9.496258942663784E+07, 3.159181090768148E+08, -1.318100815438149E+08,
2460910.500000000, A.D. 2025-Aug-23 00:00:00.0000, -1.067037172160852E+08, 3.153770705737510E+08, -1.305825750613651E+08,
2460917.500000000, A.D. 2025-Aug-30 00:00:00.0000, -1.183316503991934E+08, 3.145014555245713E+08, -1.292164249314155E+08,
2460924.500000000, A.D. 2025-Sep-06 00:00:00.0000, -1.298365180634707E+08, 3.132987738539285E+08, -1.277157863136522E+08,
2460931.500000000, A.D. 2025-Sep-13 00:00:00.0000, -1.412089801794189E+08, 3.117766375058945E+08, -1.260848139233145E+08,
2460938.500000000, A.D. 2025-Sep-20 00:00:00.0000, -1.524402098127683E+08, 3.099427353620434E+08, -1.243276532558590E+08,
2460945.500000000, A.D. 2025-Sep-27 00:00:00.0000, -1.635218731487016E+08, 3.078048108959737E+08, -1.224484329213959E+08,
2460952.500000000, A.D. 2025-Oct-04 00:00:00.0000, -1.744461095079988E+08, 3.053706429784737E+08, -1.204512577906505E+08,
2460959.500000000, A.D. 2025-Oct-11 00:00:00.0000, -1.852055118691903E+08, 3.026480287610267E+08, -1.183402029254028E+08,
2460966.500000000, A.D. 2025-Oct-18 00:00:00.0000, -1.957931077360573E+08, 2.996447682352834E+08, -1.161193082764545E+08,
2460973.500000000, A.D. 2025-Oct-25 00:00:00.0000, -2.062023403152575E+08, 2.963686503571500E+08, -1.137925741011946E+08,
2460980.500000000, A.D. 2025-Nov-01 00:00:00.0000, -2.164270500498571E+08, 2.928274406340582E+08, -1.113639570465094E+08,
2460987.500000000, A.D. 2025-Nov-08 00:00:00.0000, -2.264614565423971E+08, 2.890288700311431E+08, -1.088373668476764E+08,
2460994.500000000, A.D. 2025-Nov-15 00:00:00.0000, -2.363001407737579E+08, 2.849806250283483E+08, -1.062166636079634E+08,
2461001.500000000, A.D. 2025-Nov-22 00:00:00.0000, -2.459380272578934E+08, 2.806903389428763E+08, -1.035056556265815E+08,
2461008.500000000, A.D. 2025-Nov-29 00:00:00.0000, -2.553703663195193E+08, 2.761655855511271E+08, -1.007080976204031E+08,
2461015.500000000, A.D. 2025-Dec-06 00:00:00.0000, -2.645927187985341E+08, 2.714138747805342E+08, -9.782768909864832E+07,
2461022.500000000, A.D. 2025-Dec-13 00:00:00.0000, -2.736009427632483E+08, 2.664426470142798E+08, -9.486807316528714E+07,
2461029.500000000, A.D. 2025-Dec-20 00:00:00.0000, -2.823911787464207E+08, 2.612592669462157E+08, -9.183283594548281E+07,
2461036.500000000, A.D. 2025-Dec-27 00:00:00.0000, -2.909598345850906E+08, 2.558710194971277E+08, -8.872550629090698E+07,
2461043.500000000, A.D. 2026-Jan-03 00:00:00.0000, -2.993035713260718E+08, 2.502851071072496E+08, -8.554955565068375E+07,
2461050.500000000, A.D. 2026-Jan-10 00:00:00.0000, -3.074192900828921E+08, 2.445086476617016E+08, -8.230839814474963E+07,
2461057.500000000, A.D. 2026-Jan-17 00:00:00.0000, -3.153041196036091E+08, 2.385486728965494E+08, -7.900539084133685E+07,
2461064.500000000, A.D. 2026-Jan-24 00:00:00.0000, -3.229554044612321E+08, 2.324121272522855E+08, -7.564383421923618E+07,
2461071.500000000, A.D. 2026-Jan-31 00:00:00.0000, -3.303706938306278E+08, 2.261058671163664E+08, -7.222697279517287E+07,
2461078.500000000, A.D. 2026-Feb-07 00:00:00.0000, -3.375477307754465E+08, 2.196366603508060E+08, -6.875799590603691E+07,
2461085.500000000, A.D. 2026-Feb-14 00:00:00.0000, -3.444844417750852E+08, 2.130111860463897E+08, -6.524003865147337E+07,
2461092.500000000, A.D. 2026-Feb-21 00:00:00.0000, -3.511789260858952E+08, 2.062360350400732E+08, -6.167618296788648E+07,
2461099.500000000, A.D. 2026-Feb-28 00:00:00.0000, -3.576294460036693E+08, 1.993177123109561E+08, -5.806945862485313E+07,
2461106.500000000, A.D. 2026-Mar-07 00:00:00.0000, -3.638344200701413E+08, 1.922626392709541E+08, -5.442284410194261E+07,
2461113.500000000, A.D. 2026-Mar-14 00:00:00.0000, -3.697924164303203E+08, 1.850771535882335E+08, -5.073926777978145E+07,
2461120.500000000, A.D. 2026-Mar-21 00:00:00.0000, -3.755021445377613E+08, 1.777675094122421E+08, -4.702160936063322E+07,
2461127.500000000, A.D. 2026-Mar-28 00:00:00.0000, -3.809624472013522E+08, 1.703398790018964E+08, -4.327270124108915E+07,
2461134.500000000, A.D. 2026-Apr-04 00:00:00.0000, -3.861722935633766E+08, 1.628003547703851E+08, -3.949532985318380E+07,
2461141.500000000, A.D. 2026-Apr-11 00:00:00.0000, -3.911307727185838E+08, 1.551549513687019E+08, -3.569223702108061E+07,
2461148.500000000, A.D. 2026-Apr-18 00:00:00.0000, -3.958370877975420E+08, 1.474096077839021E+08, -3.186612134121905E+07,
2461155.500000000, A.D. 2026-Apr-25 00:00:00.0000, -4.002905504514069E+08, 1.395701894504505E+08, -2.801963958237081E+07,
2461162.500000000, A.D. 2026-May-02 00:00:00.0000, -4.044905756911466E+08, 1.316424903301054E+08, -2.415540810509967E+07,
2461169.500000000, A.D. 2026-May-09 00:00:00.0000, -4.084366769411634E+08, 1.236322348807319E+08, -2.027600431246363E+07,
2461176.500000000, A.D. 2026-May-16 00:00:00.0000, -4.121284609145658E+08, 1.155450800405947E+08, -1.638396815094353E+07,
2461183.500000000, A.D. 2026-May-23 00:00:00.0000, -4.155656222438940E+08, 1.073866182401216E+08, -1.248180357895571E+07,
2461190.500000000, A.D. 2026-May-30 00:00:00.0000, -4.187479399323574E+08, 9.916238175152810E+07, -8.571979782942824E+06,
2461197.500000000, A.D. 2026-Jun-06 00:00:00.0000, -4.216752759307323E+08, 9.087784509575850E+07, -4.656932376739435E+06,
2461204.500000000, A.D. 2026-Jun-13 00:00:00.0000, -4.243475721589392E+08, 8.253842570022832E+07, -7.390649014073499E+05,
2461211.500000000, A.D. 2026-Jun-20 00:00:00.0000, -4.267648464558212E+08, 7.414948572489935E+07, 3.179249661939166E+06,
2461218.500000000, A.D. 2026-Jun-27 00:00:00.0000, -4.289271891435269E+08, 6.571633470611775E+07, 7.095667495300751E+06,
2461225.500000000, A.D. 2026-Jul-04 00:00:00.0000, -4.308347602004544E+08, 5.724423223572266E+07, 1.100787259988312E+07,
2461232.500000000, A.D. 2026-Jul-11 00:00:00.0000, -4.324877867836255E+08, 4.873839053954187E+07, 1.491357547150526E+07,
2461239.500000000, A.D. 2026-Jul-18 00:00:00.0000, -4.338865610015172E+08, 4.020397697882748E+07, 1.881051178969989E+07,
2461246.500000000, A.D. 2026-Jul-25 00:00:00.0000, -4.350314379055524E+08, 3.164611647567774E+07, 2.269644111938117E+07,
2461253.500000000, A.D. 2026-Aug-01 00:00:00.0000, -4.359228336442472E+08, 2.306989381250800E+07, 2.656914561756623E+07,
2461260.500000000, A.D. 2026-Aug-08 00:00:00.0000, -4.365612235573063E+08, 1.448035576762749E+07, 3.042642872318981E+07,
2461267.500000000, A.D. 2026-Aug-15 00:00:00.0000, -4.369471397871724E+08, 5.882513535163456E+06, 3.426611382925173E+07,
2461274.500000000, A.D. 2026-Aug-22 00:00:00.0000, -4.370811691621861E+08, -2.718653351749280E+06, 3.808604310720358E+07,
2461281.500000000, A.D. 2026-Aug-29 00:00:00.0000, -4.369639536354751E+08, -1.131819296994231E+07, 4.188407658154421E+07,
2461288.500000000, A.D. 2026-Sep-05 00:00:00.0000, -4.365961911434346E+08, -1.991117969699802E+07, 4.565809102499638E+07,
$$EOE